LEMUR-2-GREENBERG       
1 42837U 17042N   26068.46200528  .00019778  00000+0  72539-3 0  9997
2 42837  97.3781 249.8007 0009157   4.0119 356.1192 15.27971352473146
STARLINK-32761          
1 62749U 25014Q   26068.26035100  .00025943  00000+0  94874-3 0  9996
2 62749  42.9943 160.1054 0002342 141.6220 218.4799 15.27586993 63155
